GPS BIIA-10 (PRN 32)    
1 20959U 90103A   07271.29912129 -.00000033  00000-0  10000-3 0  5605
2 20959  55.7286 308.0766 0150611 280.7732  77.5973  2.00578869123316
GPS BIIA-11 (PRN 24)    
1 21552U 91047A   07272.08340710  .00000022  00000-0  10000-3 0  6363
2 21552  54.7170 246.2523 0087415 314.2347  45.0245  2.00564856118910
GPS BIIA-12 (PRN 25)    
1 21890U 92009A   07269.60419816 -.00000013  00000-0  10000-3 0  6164
2 21890  55.0746  57.9676 0118034 285.8183  72.8905  2.00560124114244
GPS BIIA-14 (PRN 26)    
1 22014U 92039A   07272.19335188 -.00000086  00000-0  10000-3 0  8749
2 22014  56.8934   5.5329 0181564  50.9271 310.7026  2.00563865105065
GPS BIIA-15 (PRN 27)    
1 22108U 92058A   07271.62332435 -.00000021  00000-0  10000-3 0  3871
2 22108  55.3401  59.8193 0207876 257.7773  99.9003  2.00564285110235
GPS BIIA-16 (PRN 01)    
1 22231U 92079A   07272.38182845 -.00000086  00000-0  10000-3 0  3885
2 22231  56.7736   6.2762 0070677 257.2366 102.0069  2.00595875108825
GPS BIIA-17 (PRN 29)    
1 22275U 92089A   07272.17349958 -.00000086  00000-0  10000-3 0  2060
2 22275  56.6802   3.4649 0104710 321.8053  37.4948  2.00563298108232
GPS BIIA-20 (PRN 07)    
1 22657U 93032A   07269.03734728  .00000020  00000-0  10000-3 0  4606
2 22657  53.5750 179.7702 0107127 265.5173  93.2993  2.00574813101534
GPS BIIA-21 (PRN 09)    
1 22700U 93042A   07272.30631444 -.00000021  00000-0  10000-3 0  8113
2 22700  55.4421  61.1383 0191961  78.3492 283.7992  2.00561790104405
GPS BIIA-22 (PRN 05)    
1 22779U 93054A   07271.91402644  .00000042  00000-0  10000-3 0  2965
2 22779  53.8965 118.2662 0081752  68.2323 292.7252  2.00557710103154
GPS BIIA-23 (PRN 04)    
1 22877U 93068A   07270.94487217  .00000017  00000-0  10000-3 0  1028
2 22877  54.1309 244.0660 0077423  14.5822 345.6079  2.00569230102023
GPS BIIA-24 (PRN 06)    
1 23027U 94016A   07272.02459591  .00000027  00000-0  10000-3 0  1239
2 23027  53.4842 181.1078 0058478 264.2099  95.1657  2.00560757 99353
GPS BIIA-25 (PRN 03)    
1 23833U 96019A   07272.16065754  .00000026  00000-0  10000-3 0  3138
2 23833  53.0480 177.5245 0096659  42.9821 317.8233  2.00567684 84336
GPS BIIA-26 (PRN 10)    
1 23953U 96041A   07272.08121410 -.00000033  00000-0  10000-3 0  7064
2 23953  55.4220 304.7399 0074223  27.0528 333.3878  2.00561860 82125
GPS BIIA-27 (PRN 30)    
1 24320U 96056A   07271.93747638  .00000043  00000-0  10000-3 0  5000
2 24320  54.2548 121.1246 0100230  77.5272 283.6857  2.00557666 80783
GPS BIIR-02 (PRN 13)    
1 24876U 97035A   07272.52882635 -.00000087  00000-0  10000-3 0  2801
2 24876  57.0090   5.5520 0031935  81.0067 279.3894  2.00555659 74662
GPS BIIA-28 (PRN 08)    
1 25030U 97067A   07272.66000973 -.00000012  00000-0  10000-3 0  1808
2 25030  56.1552  66.0604 0100312 161.7538 198.6164  2.00563027 72566
GPS BIIR-03 (PRN 11)    
1 25933U 99055A   07272.80484743  .00000020  00000-0  10000-3 0  7664
2 25933  51.1578 233.1843 0070259  27.7618 332.5841  2.00557057 58481
GPS BIIR-04 (PRN 20)    
1 26360U 00025A   07272.40474653 -.00000033  00000-0  10000-3 0  8535
2 26360  54.4803 302.4985 0029544  76.6133 283.7652  2.00557488 54173
GPS BIIR-05 (PRN 28)    
1 26407U 00040A   07272.74211762  .00000035  00000-0  10000-3 0  7957
2 26407  55.1358 124.6840 0129947 236.8034 122.0282  2.00560109 52851
GPS BIIR-06 (PRN 14)    
1 26605U 00071A   07272.34100856 -.00000087  00000-0  10000-3 0  7811
2 26605  56.6602   4.6492 0036130 236.6199 123.0658  2.00572178 50440
GPS BIIR-07 (PRN 18)    
1 26690U 01004A   07272.21007538 -.00000037  00000-0  10000-3 0  6679
2 26690  54.5117 305.5649 0089241 215.0585 144.4017  2.00569598 48850
GPS BIIR-08 (PRN 16)    
1 27663U 03005A   07271.56193811  .00000050  00000-0  10000-3 0   500
2 27663  55.2402 124.2207 0041703 323.3980  36.4101  2.00557125 34194
GPS BIIR-09 (PRN 21)    
1 27704U 03010A   07271.12627356  .00000017  00000-0  10000-3 0  9210
2 27704  53.7596 245.0367 0130701 200.9373 158.4955  2.00570847 32971
GPS BIIR-10 (PRN 22)    
1 28129U 03058A   07272.25689489 -.00000038  00000-0  10000-3 0  5797
2 28129  54.3760 305.9646 0051955 260.0417  99.4252  2.00563541 27700
GPS BIIR-11 (PRN 19)    
1 28190U 04009A   07272.20353749  .00000026  00000-0  10000-3 0  4946
2 28190  54.8612 187.0967 0043094 313.0724  46.6023  2.00572519 25870
GPS BIIR-12 (PRN 23)    
1 28361U 04023A   07272.48853034 -.00000089  00000-0  10000-3 0  3404
2 28361  55.6434   3.3825 0052061 156.3213 203.9574  2.00571223 23967
GPS BIIR-13 (PRN 02)    
1 28474U 04045A   07271.98443109  .00000021  00000-0  10000-3 0  1970
2 28474  54.1652 242.9267 0084197 138.3290 222.2869  2.00568565 21312
GPS BIIRM-1 (PRN 17)    
1 28874U 05038A   07271.83674923  .00000028  00000-0  10000-3 0  5028
2 28874  54.9860 183.7922 0030198 195.7156 164.2304  2.00564126 14731
GPS BIIRM-2 (PRN 31)    
1 29486U 06042A   07271.45248033 -.00000014  00000-0  10000-3 0  1775
2 29486  55.2510  63.0848 0065038 283.4233  75.8550  2.00576360  7427
GPS BIIRM-3 (PRN 12)    
1 29601U 06052A   07272.39215543  .00000039  00000-0  10000-3 0  1483
2 29601  55.1373 123.2736 0033498 293.7640  66.0150  2.00550384  6355


